{"type": "FeatureCollection", "features": [ {"type": "Feature", "properties": {"norad_id": 64902, "name": "CO3D 2", "group": "resource", "lat": -75.71450329691284, "lon": -139.09934882996964, "alt_km": 513.070998112612, "timestamp": "2025-12-21T14:40:47.568796+00:00", "meta": {"OBJECT_NAME": "CO3D 2", "OBJECT_ID": "2025-156D", "EPOCH": "2025-12-21T05:39:02.619072", "MEAN_MOTION": 15.20198579, "ECCENTRICITY": 8.021e-05, "INCLINATION": 97.434, "RA_OF_ASC_NODE": 71.3801, "ARG_OF_PERICENTER": 63.6019, "MEAN_ANOMALY": 296.5298, "EPHEMERIS_TYPE": 0, "CLASSIFICATION_TYPE": "U", "NORAD_CAT_ID": 64902, "ELEMENT_SET_NO": 999, "REV_AT_EPOCH": 2249, "BSTAR": 0.00096416086, "MEAN_MOTION_DOT": 0.00020861, "MEAN_MOTION_DDOT": 0}, "tle": {"line1": "1 64902U 25156D   25355.23544698  .00020861  00000+0  96416-3 0  9996", "line2": "2 64902  97.4340  71.3801 0000802  63.6019 296.5298 15.20198579 22490"}}, "geometry": {"type": "Point", "coordinates": [-139.09934882996964, -75.71450329691284]}}, {"type": "Feature", "properties": {"norad_id": 64903, "name": "CO3D 1", "group": "resource", "lat": -74.95777855242636, "lon": -137.31959011530668, "alt_km": 513.1675973506526, "timestamp": "2025-12-21T14:40:47.568806+00:00", "meta": {"OBJECT_NAME": "CO3D 1", "OBJECT_ID": "2025-156E", "EPOCH": "2025-12-21T05:39:16.655616", "MEAN_MOTION": 15.2020552, "ECCENTRICITY": 8.998e-05, "INCLINATION": 97.4342, "RA_OF_ASC_NODE": 71.38, "ARG_OF_PERICENTER": 78.9423, "MEAN_ANOMALY": 281.1914, "EPHEMERIS_TYPE": 0, "CLASSIFICATION_TYPE": "U", "NORAD_CAT_ID": 64903, "ELEMENT_SET_NO": 999, "REV_AT_EPOCH": 2249, "BSTAR": 0.00022695878, "MEAN_MOTION_DOT": 4.849e-05, "MEAN_MOTION_DDOT": 0}, "tle": {"line1": "1 64903U 25156E   25355.23560944  .00004849  00000+0  22696-3 0  9996", "line2": "2 64903  97.4342  71.3800 0000899  78.9423 281.1914 15.20205520 22496"}}, "geometry": {"type": "Point", "coordinates": [-137.31959011530668, -74.95777855242636]}}, {"type": "Feature", "properties": {"norad_id": 66514, "name": "SENTINEL-6B", "group": "resource", "lat": -18.36244473676634, "lon": 135.50709842810994, "alt_km": 1337.837216977855, "timestamp": "2025-12-21T14:40:47.568816+00:00", "meta": {"OBJECT_NAME": "SENTINEL-6B", "OBJECT_ID": "2025-264A", "EPOCH": "2025-12-12T06:01:21.427680", "MEAN_MOTION": 12.81479575, "ECCENTRICITY": 0.0007848, "INCLINATION": 66.0385, "RA_OF_ASC_NODE": 163.4531, "ARG_OF_PERICENTER": 270.1375, "MEAN_ANOMALY": 89.8741, "EPHEMERIS_TYPE": 0, "CLASSIFICATION_TYPE": "U", "NORAD_CAT_ID": 66514, "ELEMENT_SET_NO": 999, "REV_AT_EPOCH": 322, "BSTAR": 0.00018195, "MEAN_MOTION_DOT": -1.9e-07, "MEAN_MOTION_DDOT": 0}, "tle": {"line1": "1 66514U 25264A   25346.25094245 -.00000019  00000+0  18195-3 0  9999", "line2": "2 66514  66.0385 163.4531 0007848 270.1375  89.8741 12.81479575  3220"}}, "geometry": {"type": "Point", "coordinates": [135.50709842810994, -18.36244473676634]}}]}